STARLINK-35865          
1 67826U 26033F   26065.78644008  .00177885  00000+0  82715-3 0  9990
2 67826  42.9976 289.2649 0002525 283.3329  76.7261 15.82089662  4169
STARLINK-36289          
1 67827U 26033G   26065.78569110  .00297636  00000+0  13607-2 0  9991
2 67827  42.9975 289.2589 0002173 287.8449  72.2185 15.82129940  4163
STARLINK-36670          
1 67828U 26033H   26065.78494248  .00246789  00000+0  11365-2 0  9993
2 67828  42.9980 289.2528 0002248 284.1713  75.8909 15.82107634  4169
STARLINK-36144          
1 67829U 26033J   26065.78419117  .00357143  00000+0  16199-2 0  9993
2 67829  42.9971 289.2462 0002443 286.0710  73.9892 15.82143142  4166
STARLINK-36611          
1 67830U 26033K   26065.78344313  .00228575  00000+0  10553-2 0  9994
2 67830  42.9975 289.2405 0002640 280.1381  79.9192 15.82102080  4162
STARLINK-36661          
1 67831U 26033L   26065.78269360  .00275000  00000+0  12618-2 0  9992
2 67831  42.9979 289.2343 0002277 278.1918  81.8695 15.82111411  4165
STARLINK-36662          
1 67832U 26033M   26065.78807522  .00247349  00000+0  10176-2 0  9993
2 67832  42.9957 288.3680 0002076 271.9156  88.1479 15.84493688  4170
STARLINK-36659          
1 67833U 26033N   26065.78194300  .00363822  00000+0  16477-2 0  9992
2 67833  42.9969 289.2279 0002156 282.6851  77.3779 15.82159268  4161
STARLINK-36655          
1 67834U 26033P   26065.78119554  .00178774  00000+0  83145-3 0  9998
2 67834  42.9972 289.2216 0002199 276.5141  83.5480 15.82083765  4164
STARLINK-36657          
1 67835U 26033Q   26065.78044539  .00275569  00000+0  12641-2 0  9991
2 67835  42.9973 289.2149 0002472 284.3942  75.6655 15.82114806  4168
STARLINK-36650          
1 67836U 26033R   26065.65343038  .00361422  00000+0  16428-2 0  9995
2 67836  42.9971 289.9837 0001832 277.2771  82.7893 15.82087313  4141
STARLINK-36649          
1 67837U 26033S   26065.77894736  .00294760  00000+0  13493-2 0  9994
2 67837  42.9972 289.2030 0002400 286.0268  74.0339 15.82109322  4168
