CCSDS_OMM_VERS = 2.0
CREATION_DATE  = 
ORIGINATOR     = 

OBJECT_NAME    = STARLINK-35865
OBJECT_ID      = 2026-033F
CENTER_NAME    = EARTH
REF_FRAME      = TEME
TIME_SYSTEM    = UTC
MEAN_ELEMENT_THEORY = SGP/SGP4

EPOCH          = 2026-03-06T18:52:28.422912
MEAN_MOTION    = 15.82089662
ECCENTRICITY   = .0002525
INCLINATION    = 42.9976
RA_OF_ASC_NODE = 289.2649
ARG_OF_PERICENTER = 283.3329
MEAN_ANOMALY   = 76.7261

EPHEMERIS_TYPE = 0
CLASSIFICATION_TYPE = U
NORAD_CAT_ID   = 67826
ELEMENT_SET_NO = 999
REV_AT_EPOCH   = 416
BSTAR          = .82715E-3
MEAN_MOTION_DOT = .177885E-2
MEAN_MOTION_DDOT = 0

CCSDS_OMM_VERS = 2.0
CREATION_DATE  = 
ORIGINATOR     = 

OBJECT_NAME    = STARLINK-36289
OBJECT_ID      = 2026-033G
CENTER_NAME    = EARTH
REF_FRAME      = TEME
TIME_SYSTEM    = UTC
MEAN_ELEMENT_THEORY = SGP/SGP4

EPOCH          = 2026-03-06T18:51:23.711040
MEAN_MOTION    = 15.82129940
ECCENTRICITY   = .0002173
INCLINATION    = 42.9975
RA_OF_ASC_NODE = 289.2589
ARG_OF_PERICENTER = 287.8449
MEAN_ANOMALY   = 72.2185

EPHEMERIS_TYPE = 0
CLASSIFICATION_TYPE = U
NORAD_CAT_ID   = 67827
ELEMENT_SET_NO = 999
REV_AT_EPOCH   = 416
BSTAR          = .13607E-2
MEAN_MOTION_DOT = .297636E-2
MEAN_MOTION_DDOT = 0

CCSDS_OMM_VERS = 2.0
CREATION_DATE  = 
ORIGINATOR     = 

OBJECT_NAME    = STARLINK-36670
OBJECT_ID      = 2026-033H
CENTER_NAME    = EARTH
REF_FRAME      = TEME
TIME_SYSTEM    = UTC
MEAN_ELEMENT_THEORY = SGP/SGP4

EPOCH          = 2026-03-06T18:50:19.030272
MEAN_MOTION    = 15.82107634
ECCENTRICITY   = .0002248
INCLINATION    = 42.9980
RA_OF_ASC_NODE = 289.2528
ARG_OF_PERICENTER = 284.1713
MEAN_ANOMALY   = 75.8909

EPHEMERIS_TYPE = 0
CLASSIFICATION_TYPE = U
NORAD_CAT_ID   = 67828
ELEMENT_SET_NO = 999
REV_AT_EPOCH   = 416
BSTAR          = .11365E-2
MEAN_MOTION_DOT = .246789E-2
MEAN_MOTION_DDOT = 0

CCSDS_OMM_VERS = 2.0
CREATION_DATE  = 
ORIGINATOR     = 

OBJECT_NAME    = STARLINK-36144
OBJECT_ID      = 2026-033J
CENTER_NAME    = EARTH
REF_FRAME      = TEME
TIME_SYSTEM    = UTC
MEAN_ELEMENT_THEORY = SGP/SGP4

EPOCH          = 2026-03-06T18:49:14.117088
MEAN_MOTION    = 15.82143142
ECCENTRICITY   = .0002443
INCLINATION    = 42.9971
RA_OF_ASC_NODE = 289.2462
ARG_OF_PERICENTER = 286.0710
MEAN_ANOMALY   = 73.9892

EPHEMERIS_TYPE = 0
CLASSIFICATION_TYPE = U
NORAD_CAT_ID   = 67829
ELEMENT_SET_NO = 999
REV_AT_EPOCH   = 416
BSTAR          = .16199E-2
MEAN_MOTION_DOT = .357143E-2
MEAN_MOTION_DDOT = 0

CCSDS_OMM_VERS = 2.0
CREATION_DATE  = 
ORIGINATOR     = 

OBJECT_NAME    = STARLINK-36611
OBJECT_ID      = 2026-033K
CENTER_NAME    = EARTH
REF_FRAME      = TEME
TIME_SYSTEM    = UTC
MEAN_ELEMENT_THEORY = SGP/SGP4

EPOCH          = 2026-03-06T18:48:09.486432
MEAN_MOTION    = 15.82102080
ECCENTRICITY   = .000264
INCLINATION    = 42.9975
RA_OF_ASC_NODE = 289.2405
ARG_OF_PERICENTER = 280.1381
MEAN_ANOMALY   = 79.9192

EPHEMERIS_TYPE = 0
CLASSIFICATION_TYPE = U
NORAD_CAT_ID   = 67830
ELEMENT_SET_NO = 999
REV_AT_EPOCH   = 416
BSTAR          = .10553E-2
MEAN_MOTION_DOT = .228575E-2
MEAN_MOTION_DDOT = 0

CCSDS_OMM_VERS = 2.0
CREATION_DATE  = 
ORIGINATOR     = 

OBJECT_NAME    = STARLINK-36661
OBJECT_ID      = 2026-033L
CENTER_NAME    = EARTH
REF_FRAME      = TEME
TIME_SYSTEM    = UTC
MEAN_ELEMENT_THEORY = SGP/SGP4

EPOCH          = 2026-03-06T18:47:04.727040
MEAN_MOTION    = 15.82111411
ECCENTRICITY   = .0002277
INCLINATION    = 42.9979
RA_OF_ASC_NODE = 289.2343
ARG_OF_PERICENTER = 278.1918
MEAN_ANOMALY   = 81.8695

EPHEMERIS_TYPE = 0
CLASSIFICATION_TYPE = U
NORAD_CAT_ID   = 67831
ELEMENT_SET_NO = 999
REV_AT_EPOCH   = 416
BSTAR          = .12618E-2
MEAN_MOTION_DOT = .275E-2
MEAN_MOTION_DDOT = 0

CCSDS_OMM_VERS = 2.0
CREATION_DATE  = 
ORIGINATOR     = 

OBJECT_NAME    = STARLINK-36662
OBJECT_ID      = 2026-033M
CENTER_NAME    = EARTH
REF_FRAME      = TEME
TIME_SYSTEM    = UTC
MEAN_ELEMENT_THEORY = SGP/SGP4

EPOCH          = 2026-03-06T18:54:49.699008
MEAN_MOTION    = 15.84493688
ECCENTRICITY   = .0002076
INCLINATION    = 42.9957
RA_OF_ASC_NODE = 288.3680
ARG_OF_PERICENTER = 271.9156
MEAN_ANOMALY   = 88.1479

EPHEMERIS_TYPE = 0
CLASSIFICATION_TYPE = U
NORAD_CAT_ID   = 67832
ELEMENT_SET_NO = 999
REV_AT_EPOCH   = 417
BSTAR          = .10176E-2
MEAN_MOTION_DOT = .247349E-2
MEAN_MOTION_DDOT = 0

CCSDS_OMM_VERS = 2.0
CREATION_DATE  = 
ORIGINATOR     = 

OBJECT_NAME    = STARLINK-36659
OBJECT_ID      = 2026-033N
CENTER_NAME    = EARTH
REF_FRAME      = TEME
TIME_SYSTEM    = UTC
MEAN_ELEMENT_THEORY = SGP/SGP4

EPOCH          = 2026-03-06T18:45:59.875200
MEAN_MOTION    = 15.82159268
ECCENTRICITY   = .0002156
INCLINATION    = 42.9969
RA_OF_ASC_NODE = 289.2279
ARG_OF_PERICENTER = 282.6851
MEAN_ANOMALY   = 77.3779

EPHEMERIS_TYPE = 0
CLASSIFICATION_TYPE = U
NORAD_CAT_ID   = 67833
ELEMENT_SET_NO = 999
REV_AT_EPOCH   = 416
BSTAR          = .16477E-2
MEAN_MOTION_DOT = .363822E-2
MEAN_MOTION_DDOT = 0

CCSDS_OMM_VERS = 2.0
CREATION_DATE  = 
ORIGINATOR     = 

OBJECT_NAME    = STARLINK-36655
OBJECT_ID      = 2026-033P
CENTER_NAME    = EARTH
REF_FRAME      = TEME
TIME_SYSTEM    = UTC
MEAN_ELEMENT_THEORY = SGP/SGP4

EPOCH          = 2026-03-06T18:44:55.294656
MEAN_MOTION    = 15.82083765
ECCENTRICITY   = .0002199
INCLINATION    = 42.9972
RA_OF_ASC_NODE = 289.2216
ARG_OF_PERICENTER = 276.5141
MEAN_ANOMALY   = 83.5480

EPHEMERIS_TYPE = 0
CLASSIFICATION_TYPE = U
NORAD_CAT_ID   = 67834
ELEMENT_SET_NO = 999
REV_AT_EPOCH   = 416
BSTAR          = .83145E-3
MEAN_MOTION_DOT = .178774E-2
MEAN_MOTION_DDOT = 0

CCSDS_OMM_VERS = 2.0
CREATION_DATE  = 
ORIGINATOR     = 

OBJECT_NAME    = STARLINK-36657
OBJECT_ID      = 2026-033Q
CENTER_NAME    = EARTH
REF_FRAME      = TEME
TIME_SYSTEM    = UTC
MEAN_ELEMENT_THEORY = SGP/SGP4

EPOCH          = 2026-03-06T18:43:50.481696
MEAN_MOTION    = 15.82114806
ECCENTRICITY   = .0002472
INCLINATION    = 42.9973
RA_OF_ASC_NODE = 289.2149
ARG_OF_PERICENTER = 284.3942
MEAN_ANOMALY   = 75.6655

EPHEMERIS_TYPE = 0
CLASSIFICATION_TYPE = U
NORAD_CAT_ID   = 67835
ELEMENT_SET_NO = 999
REV_AT_EPOCH   = 416
BSTAR          = .12641E-2
MEAN_MOTION_DOT = .275569E-2
MEAN_MOTION_DDOT = 0

CCSDS_OMM_VERS = 2.0
CREATION_DATE  = 
ORIGINATOR     = 

OBJECT_NAME    = STARLINK-36650
OBJECT_ID      = 2026-033R
CENTER_NAME    = EARTH
REF_FRAME      = TEME
TIME_SYSTEM    = UTC
MEAN_ELEMENT_THEORY = SGP/SGP4

EPOCH          = 2026-03-06T15:40:56.384832
MEAN_MOTION    = 15.82087313
ECCENTRICITY   = .00018323
INCLINATION    = 42.9971
RA_OF_ASC_NODE = 289.9837
ARG_OF_PERICENTER = 277.2771
MEAN_ANOMALY   = 82.7893

EPHEMERIS_TYPE = 0
CLASSIFICATION_TYPE = U
NORAD_CAT_ID   = 67836
ELEMENT_SET_NO = 999
REV_AT_EPOCH   = 414
BSTAR          = .16427979E-2
MEAN_MOTION_DOT = .361422E-2
MEAN_MOTION_DDOT = 0

CCSDS_OMM_VERS = 2.0
CREATION_DATE  = 
ORIGINATOR     = 

OBJECT_NAME    = STARLINK-36649
OBJECT_ID      = 2026-033S
CENTER_NAME    = EARTH
REF_FRAME      = TEME
TIME_SYSTEM    = UTC
MEAN_ELEMENT_THEORY = SGP/SGP4

EPOCH          = 2026-03-06T18:41:41.051904
MEAN_MOTION    = 15.82109322
ECCENTRICITY   = .00024
INCLINATION    = 42.9972
RA_OF_ASC_NODE = 289.2030
ARG_OF_PERICENTER = 286.0268
MEAN_ANOMALY   = 74.0339

EPHEMERIS_TYPE = 0
CLASSIFICATION_TYPE = U
NORAD_CAT_ID   = 67837
ELEMENT_SET_NO = 999
REV_AT_EPOCH   = 416
BSTAR          = .13493E-2
MEAN_MOTION_DOT = .29476E-2
MEAN_MOTION_DDOT = 0

